KUIPER-00035            
1 63748U 25088AA  25340.92111348  .00004135  00000+0  57013-3 0  9995
2 63748  51.8988 164.3328 0007463 118.7089 241.4624 14.80000981 33774
KUIPER-00037            
1 63749U 25088AB  25340.78297432  .00002624  00000+0  37048-3 0  9996
2 63749  51.8978 163.8422 0008920  75.0325 285.1624 14.80250436 34554
KUIPER-00038            
1 63750U 25088AC  25341.20929959 -.00000542  00000+0 -41763-4 0  9991
2 63750  51.9006 147.0253 0008139 122.0399 238.1355 14.79935829 33823
KUIPER-00039            
1 64500U 25134A   25341.31304658 -.00068741  00000+0 -90382-2 0  9996
2 64500  51.9010 281.5285 0011540 348.6377  11.4324 14.80072659 26390
KUIPER-00040            
1 64501U 25134B   25341.16933425  .00009680  00000+0  12951-2 0  9991
2 64501  51.8992 293.3619 0016927 322.2947  37.6828 14.79912087 26212
KUIPER-00041            
1 64502U 25134C   25341.30326834  .00008314  00000+0  11148-2 0  9998
2 64502  51.8995 294.1230 0013688 322.7328  37.2684 14.80012752 26211
KUIPER-00042            
1 64503U 25134D   25341.23958571  .00002140  00000+0  30955-3 0  9999
2 64503  51.8999 290.4105 0012204 331.5579  28.4716 14.79949529 26267
KUIPER-00043            
1 64504U 25134E   25341.11265609 -.00006245  00000+0 -79186-3 0  9991
2 64504  51.9033 283.4148 0003413 337.0768  23.0041 14.79875246 26356
